[{"OBJECT_NAME":"SPIP","OBJECT_ID":"2023-174AU","EPOCH":"2026-03-09T22:52:46.383168","MEAN_MOTION":15.26695413,"ECCENTRICITY":0.00100427,"INCLINATION":97.3901,"RA_OF_ASC_NODE":146.4534,"ARG_OF_PERICENTER":168.1112,"MEAN_ANOMALY":192.0366,"EPHEMERIS_TYPE":0,"CLASSIFICATION_TYPE":"U","NORAD_CAT_ID":58298,"ELEMENT_SET_NO":999,"REV_AT_EPOCH":12963,"BSTAR":0.00025731582,"MEAN_MOTION_DOT":6.692e-5,"MEAN_MOTION_DDOT":0},{"OBJECT_NAME":"STARLINK-32567","OBJECT_ID":"2024-207U","EPOCH":"2026-03-09T23:14:47.109120","MEAN_MOTION":15.27586264,"ECCENTRICITY":6.466e-5,"INCLINATION":42.9999,"RA_OF_ASC_NODE":276.7809,"ARG_OF_PERICENTER":254.6199,"MEAN_ANOMALY":105.4581,"EPHEMERIS_TYPE":0,"CLASSIFICATION_TYPE":"U","NORAD_CAT_ID":61930,"ELEMENT_SET_NO":999,"REV_AT_EPOCH":7539,"BSTAR":0.00089892393,"MEAN_MOTION_DOT":0.00024561,"MEAN_MOTION_DDOT":0}]
